[{"OBJECT_NAME":"STARLINK-30404","OBJECT_ID":"2023-141P","EPOCH":"2026-03-09T21:18:29.057184","MEAN_MOTION":15.30188798,"ECCENTRICITY":0.00010347,"INCLINATION":53.16,"RA_OF_ASC_NODE":282.8255,"ARG_OF_PERICENTER":95.2684,"MEAN_ANOMALY":264.8435,"EPHEMERIS_TYPE":0,"CLASSIFICATION_TYPE":"U","NORAD_CAT_ID":57853,"ELEMENT_SET_NO":999,"REV_AT_EPOCH":14036,"BSTAR":2.22678e-5,"MEAN_MOTION_DOT":3.0e-6,"MEAN_MOTION_DDOT":0},{"OBJECT_NAME":"TRANSPORTER-1 OBJECT L","OBJECT_ID":"2021-006L","EPOCH":"2026-03-09T22:38:42.795168","MEAN_MOTION":15.33192932,"ECCENTRICITY":0.00114726,"INCLINATION":97.2368,"RA_OF_ASC_NODE":117.6447,"ARG_OF_PERICENTER":180.5165,"MEAN_ANOMALY":179.6068,"EPHEMERIS_TYPE":0,"CLASSIFICATION_TYPE":"U","NORAD_CAT_ID":47423,"ELEMENT_SET_NO":999,"REV_AT_EPOCH":28445,"BSTAR":0.00025636794,"MEAN_MOTION_DOT":8.162e-5,"MEAN_MOTION_DDOT":0}]
